[
  {
    "name": "en-US",
    "nativeName": "English",
    "wikiCode": "en",
    "discordCode": "en-US",
    "iso639": "en",
    "flag": "ðŸ‡ºðŸ‡¸",
    "default": true,
    "contributors": [
      "266103595949096960"
    ]
  },
  {
    "name": "es-ES",
    "nativeName": "EspaÃ±ol",
    "wikiCode": "es",
    "discordCode": "es-ES",
    "iso639": "es",
    "flag": "ðŸ‡ªðŸ‡¸",
    "default": false,
    "contributors": [
      "266103595949096960"
    ]
  },
  {
    "name": "vi-VN",
    "nativeName": "Tiáº¿ng Viá»‡t",
    "wikiCode": null,
    "discordCode": "vi",
    "iso639": "vi",
    "flag": "ðŸ‡»ðŸ‡³",
    "default": false,
    "contributors": [
      "754982406393430098"
    ]
  },
  {
    "name": "ja-JP",
    "nativeName": "æ—¥æœ¬èªž",
    "wikiCode": null,
    "discordCode": "ja",
    "iso639": "ja",
    "flag": "ðŸ‡¯ðŸ‡µ",
    "default": false,
    "contributors": [
      "266103595949096960"
    ]
  },
  {
    "name": "ca-ES",
    "nativeName": "CatalÃ ",
    "wikiCode": null,
    "discordCode": null,
    "iso639": "ca",
    "flag": "ðŸ‡ªðŸ‡¸",
    "default": false,
    "contributors": [
      "661241315891085314"
    ]
  },
  {
    "name": "fr-FR",
    "nativeName": "FranÃ§ais",
    "wikiCode": null,
    "discordCode": null,
    "iso639": "fr",
    "flag": "ðŸ‡«ðŸ‡·",
    "default": false,
    "contributors": [
      "510524491126800405",
      "777947717024088106"
    ]
  },
  {
    "name": "zh-CN",
    "nativeName": "ä¸­æ–‡",
    "wikiCode": null,
    "discordCode": "zh-CN",
    "iso639": "zh",
    "flag": "ðŸ‡¨ðŸ‡³",
    "default": false,
    "contributors": [
      "266103595949096960"
    ]
  },
  {
    "name": "de-DE",
    "nativeName": "Deutsch",
    "wikiCode": null,
    "discordCode": "de",
    "iso639": "de",
    "flag": "ðŸ‡©ðŸ‡ª",
    "default": false,
    "contributors": [
      "266103595949096960"
    ]
  }
]
